TERRASAR-X              
1 31698U 07026A   26095.47313887  .00001749  00000+0  86458-4 0  9990
2 31698  97.4469 104.2157 0001880  93.4012 266.7438 15.19154565 42187
WORLDVIEW-1 (WV-1)      
1 32060U 07041A   26095.81962103  .00008891  00000+0  36886-3 0  9994
2 32060  97.3853 216.5861 0001449 334.6727  25.4439 15.24090452 31853
YAOGAN-3                
1 32289U 07055A   26095.63056484  .00004051  00000+0  42045-3 0  9996
2 32289  97.8224 126.2150 0001397  85.2622 274.8755 14.90513014995054
COSMO-SKYMED 2          
1 32376U 07059A   26095.85725784  .00000718  00000+0  96673-4 0  9990
2 32376  97.8881 280.5016 0001300  89.8092 270.3270 14.82162104991285
RADARSAT-2              
1 32382U 07061A   26095.89783995  .00000007  00000+0  19480-4 0  9994
2 32382  98.5807 103.8558 0001246  84.3509 275.7816 14.29981616955629
CARTOSAT-2A             
1 32783U 08021A   26095.86835234  .00000694  00000+0  10034-3 0  9994
2 32783  97.7714 147.0210 0011662 354.2637   5.8439 14.79151861968118
HUANJING 1A (HJ-1A)     
1 33320U 08041A   26095.87995576  .00001898  00000+0  23448-3 0  9991
2 33320  97.6662  84.5376 0019716  20.6210 339.5796 14.83821953947687
HUANJING 1B (HJ-1B)     
1 33321U 08041B   26095.88480921  .00002153  00000+0  26671-3 0  9992
2 33321  97.6504  87.9273 0037973  61.7599 298.7440 14.83185626947690
GEOEYE 1                
1 33331U 08042A   26095.80674615  .00000791  00000+0  15771-3 0  9996
2 33331  98.1266 170.6478 0002919 296.5349  63.5554 14.64658815939556
THEOS                   
1 33396U 08049A   26095.82184362 -.00000196  00000+0 -72265-4 0  9994
2 33396  98.5641 155.4317 0001185  95.8031 264.3281 14.20121808907690
COSMO-SKYMED 3          
1 33412U 08054A   26095.82167947  .00005195  00000+0  35504-3 0  9995
2 33412  97.8364 313.1784 0016424 148.0918 212.1307 15.06497494946045
YAOGAN-4                
1 33446U 08061A   26095.77588957  .00001847  00000+0  23319-3 0  9993
2 33446  97.9271  29.8447 0013203 310.8695  49.1373 14.83065097934930
GOSAT (IBUKI)           
1 33492U 09002A   26095.86535456  .00001067  00000+0  19663-3 0  9997
2 33492  98.0795 207.8867 0001018  97.4485 262.6835 14.67549901920858
DEIMOS-1                
1 35681U 09041A   26095.88088965  .00001559  00000+0  23787-3 0  9990
2 35681  97.7308 256.2785 0002726  77.5021 282.6494 14.75163583896228
DUBAISAT-1              
1 35682U 09041B   26095.84475799  .00001652  00000+0  25303-3 0  9992
2 35682  97.9928 229.9471 0009313 307.4089  52.6272 14.74987085894436
OCEANSAT-2              
1 35931U 09051A   26095.85552274  .00000005  00000+0  28713-4 0  9995
2 35931  98.2314  89.9418 0017402  78.6552 281.6568 13.99655155869217
WORLDVIEW-2 (WV-2)      
1 35946U 09055A   26095.79550111  .00000227  00000+0  89457-4 0  9994
2 35946  98.4651 170.2685 0005537  80.7718 279.4095 14.37922763865247
