[{"OBJECT_NAME":"TERRASAR-X","OBJECT_ID":"2007-026A","EPOCH":"2026-04-05T11:21:19.198368","MEAN_MOTION":15.19154565,"ECCENTRICITY":0.000188,"INCLINATION":97.4469,"RA_OF_ASC_NODE":104.2157,"ARG_OF_PERICENTER":93.4012,"MEAN_ANOMALY":266.7438,"EPHEMERIS_TYPE":0,"CLASSIFICATION_TYPE":"U","NORAD_CAT_ID":31698,"ELEMENT_SET_NO":999,"REV_AT_EPOCH":4218,"BSTAR":8.6458e-5,"MEAN_MOTION_DOT":1.749e-5,"MEAN_MOTION_DDOT":0},{"OBJECT_NAME":"WORLDVIEW-1 (WV-1)","OBJECT_ID":"2007-041A","EPOCH":"2026-04-05T19:40:15.256992","MEAN_MOTION":15.24090452,"ECCENTRICITY":0.0001449,"INCLINATION":97.3853,"RA_OF_ASC_NODE":216.5861,"ARG_OF_PERICENTER":334.6727,"MEAN_ANOMALY":25.4439,"EPHEMERIS_TYPE":0,"CLASSIFICATION_TYPE":"U","NORAD_CAT_ID":32060,"ELEMENT_SET_NO":999,"REV_AT_EPOCH":3185,"BSTAR":0.00036886,"MEAN_MOTION_DOT":8.891e-5,"MEAN_MOTION_DDOT":0},{"OBJECT_NAME":"YAOGAN-3","OBJECT_ID":"2007-055A","EPOCH":"2026-04-05T15:08:00.802176","MEAN_MOTION":14.90513014,"ECCENTRICITY":0.00013978,"INCLINATION":97.8224,"RA_OF_ASC_NODE":126.215,"ARG_OF_PERICENTER":85.2622,"MEAN_ANOMALY":274.8755,"EPHEMERIS_TYPE":0,"CLASSIFICATION_TYPE":"U","NORAD_CAT_ID":32289,"ELEMENT_SET_NO":999,"REV_AT_EPOCH":99505,"BSTAR":0.00042045263,"MEAN_MOTION_DOT":4.051e-5,"MEAN_MOTION_DDOT":0},{"OBJECT_NAME":"COSMO-SKYMED 2","OBJECT_ID":"2007-059A","EPOCH":"2026-04-05T20:34:27.077376","MEAN_MOTION":14.82162104,"ECCENTRICITY":0.00013,"INCLINATION":97.8881,"RA_OF_ASC_NODE":280.5016,"ARG_OF_PERICENTER":89.8092,"MEAN_ANOMALY":270.327,"EPHEMERIS_TYPE":0,"CLASSIFICATION_TYPE":"U","NORAD_CAT_ID":32376,"ELEMENT_SET_NO":999,"REV_AT_EPOCH":99128,"BSTAR":9.6673e-5,"MEAN_MOTION_DOT":7.18e-6,"MEAN_MOTION_DDOT":0},{"OBJECT_NAME":"RADARSAT-2","OBJECT_ID":"2007-061A","EPOCH":"2026-04-05T21:32:53.371680","MEAN_MOTION":14.29981616,"ECCENTRICITY":0.0001246,"INCLINATION":98.5807,"RA_OF_ASC_NODE":103.8558,"ARG_OF_PERICENTER":84.3509,"MEAN_ANOMALY":275.7816,"EPHEMERIS_TYPE":0,"CLASSIFICATION_TYPE":"U","NORAD_CAT_ID":32382,"ELEMENT_SET_NO":999,"REV_AT_EPOCH":95562,"BSTAR":1.948e-5,"MEAN_MOTION_DOT":7.0e-8,"MEAN_MOTION_DDOT":0},{"OBJECT_NAME":"CARTOSAT-2A","OBJECT_ID":"2008-021A","EPOCH":"2026-04-05T20:50:25.642176","MEAN_MOTION":14.79151861,"ECCENTRICITY":0.0011662,"INCLINATION":97.7714,"RA_OF_ASC_NODE":147.021,"ARG_OF_PERICENTER":354.2637,"MEAN_ANOMALY":5.8439,"EPHEMERIS_TYPE":0,"CLASSIFICATION_TYPE":"U","NORAD_CAT_ID":32783,"ELEMENT_SET_NO":999,"REV_AT_EPOCH":96811,"BSTAR":0.00010034,"MEAN_MOTION_DOT":6.94e-6,"MEAN_MOTION_DDOT":0},{"OBJECT_NAME":"HUANJING 1A (HJ-1A)","OBJECT_ID":"2008-041A","EPOCH":"2026-04-05T21:07:08.177664","MEAN_MOTION":14.83821953,"ECCENTRICITY":0.0019716,"INCLINATION":97.6662,"RA_OF_ASC_NODE":84.5376,"ARG_OF_PERICENTER":20.621,"MEAN_ANOMALY":339.5796,"EPHEMERIS_TYPE":0,"CLASSIFICATION_TYPE":"U","NORAD_CAT_ID":33320,"ELEMENT_SET_NO":999,"REV_AT_EPOCH":94768,"BSTAR":0.00023448,"MEAN_MOTION_DOT":1.898e-5,"MEAN_MOTION_DDOT":0},{"OBJECT_NAME":"HUANJING 1B (HJ-1B)","OBJECT_ID":"2008-041B","EPOCH":"2026-04-05T21:14:07.515744","MEAN_MOTION":14.83185626,"ECCENTRICITY":0.0037973,"INCLINATION":97.6504,"RA_OF_ASC_NODE":87.9273,"ARG_OF_PERICENTER":61.7599,"MEAN_ANOMALY":298.744,"EPHEMERIS_TYPE":0,"CLASSIFICATION_TYPE":"U","NORAD_CAT_ID":33321,"ELEMENT_SET_NO":999,"REV_AT_EPOCH":94769,"BSTAR":0.00026671,"MEAN_MOTION_DOT":2.153e-5,"MEAN_MOTION_DDOT":0},{"OBJECT_NAME":"GEOEYE 1","OBJECT_ID":"2008-042A","EPOCH":"2026-04-05T19:21:42.867360","MEAN_MOTION":14.64658815,"ECCENTRICITY":0.0002919,"INCLINATION":98.1266,"RA_OF_ASC_NODE":170.6478,"ARG_OF_PERICENTER":296.5349,"MEAN_ANOMALY":63.5554,"EPHEMERIS_TYPE":0,"CLASSIFICATION_TYPE":"U","NORAD_CAT_ID":33331,"ELEMENT_SET_NO":999,"REV_AT_EPOCH":93955,"BSTAR":0.00015771,"MEAN_MOTION_DOT":7.91e-6,"MEAN_MOTION_DDOT":0},{"OBJECT_NAME":"THEOS","OBJECT_ID":"2008-049A","EPOCH":"2026-04-05T19:43:27.288768","MEAN_MOTION":14.20121808,"ECCENTRICITY":0.0001185,"INCLINATION":98.5641,"RA_OF_ASC_NODE":155.4317,"ARG_OF_PERICENTER":95.8031,"MEAN_ANOMALY":264.3281,"EPHEMERIS_TYPE":0,"CLASSIFICATION_TYPE":"U","NORAD_CAT_ID":33396,"ELEMENT_SET_NO":999,"REV_AT_EPOCH":90769,"BSTAR":-7.2265e-5,"MEAN_MOTION_DOT":-1.96e-6,"MEAN_MOTION_DDOT":0},{"OBJECT_NAME":"COSMO-SKYMED 3","OBJECT_ID":"2008-054A","EPOCH":"2026-04-05T19:43:13.106208","MEAN_MOTION":15.06497494,"ECCENTRICITY":0.0016424,"INCLINATION":97.8364,"RA_OF_ASC_NODE":313.1784,"ARG_OF_PERICENTER":148.0918,"MEAN_ANOMALY":212.1307,"EPHEMERIS_TYPE":0,"CLASSIFICATION_TYPE":"U","NORAD_CAT_ID":33412,"ELEMENT_SET_NO":999,"REV_AT_EPOCH":94604,"BSTAR":0.00035504,"MEAN_MOTION_DOT":5.195e-5,"MEAN_MOTION_DDOT":0},{"OBJECT_NAME":"YAOGAN-4","OBJECT_ID":"2008-061A","EPOCH":"2026-04-05T18:37:16.858848","MEAN_MOTION":14.83065097,"ECCENTRICITY":0.0013203,"INCLINATION":97.9271,"RA_OF_ASC_NODE":29.8447,"ARG_OF_PERICENTER":310.8695,"MEAN_ANOMALY":49.1373,"EPHEMERIS_TYPE":0,"CLASSIFICATION_TYPE":"U","NORAD_CAT_ID":33446,"ELEMENT_SET_NO":999,"REV_AT_EPOCH":93493,"BSTAR":0.00023319,"MEAN_MOTION_DOT":1.847e-5,"MEAN_MOTION_DDOT":0},{"OBJECT_NAME":"GOSAT (IBUKI)","OBJECT_ID":"2009-002A","EPOCH":"2026-04-05T20:46:06.633984","MEAN_MOTION":14.67549901,"ECCENTRICITY":0.0001018,"INCLINATION":98.0795,"RA_OF_ASC_NODE":207.8867,"ARG_OF_PERICENTER":97.4485,"MEAN_ANOMALY":262.6835,"EPHEMERIS_TYPE":0,"CLASSIFICATION_TYPE":"U","NORAD_CAT_ID":33492,"ELEMENT_SET_NO":999,"REV_AT_EPOCH":92085,"BSTAR":0.00019663,"MEAN_MOTION_DOT":1.067e-5,"MEAN_MOTION_DDOT":0},{"OBJECT_NAME":"DEIMOS-1","OBJECT_ID":"2009-041A","EPOCH":"2026-04-05T21:08:28.865760","MEAN_MOTION":14.75163583,"ECCENTRICITY":0.0002726,"INCLINATION":97.7308,"RA_OF_ASC_NODE":256.2785,"ARG_OF_PERICENTER":77.5021,"MEAN_ANOMALY":282.6494,"EPHEMERIS_TYPE":0,"CLASSIFICATION_TYPE":"U","NORAD_CAT_ID":35681,"ELEMENT_SET_NO":999,"REV_AT_EPOCH":89622,"BSTAR":0.00023787,"MEAN_MOTION_DOT":1.559e-5,"MEAN_MOTION_DDOT":0},{"OBJECT_NAME":"DUBAISAT-1","OBJECT_ID":"2009-041B","EPOCH":"2026-04-05T20:16:27.090336","MEAN_MOTION":14.74987085,"ECCENTRICITY":0.0009313,"INCLINATION":97.9928,"RA_OF_ASC_NODE":229.9471,"ARG_OF_PERICENTER":307.4089,"MEAN_ANOMALY":52.6272,"EPHEMERIS_TYPE":0,"CLASSIFICATION_TYPE":"U","NORAD_CAT_ID":35682,"ELEMENT_SET_NO":999,"REV_AT_EPOCH":89443,"BSTAR":0.00025303,"MEAN_MOTION_DOT":1.652e-5,"MEAN_MOTION_DDOT":0},{"OBJECT_NAME":"OCEANSAT-2","OBJECT_ID":"2009-051A","EPOCH":"2026-04-05T20:31:57.164736","MEAN_MOTION":13.99655155,"ECCENTRICITY":0.0017402,"INCLINATION":98.2314,"RA_OF_ASC_NODE":89.9418,"ARG_OF_PERICENTER":78.6552,"MEAN_ANOMALY":281.6568,"EPHEMERIS_TYPE":0,"CLASSIFICATION_TYPE":"U","NORAD_CAT_ID":35931,"ELEMENT_SET_NO":999,"REV_AT_EPOCH":86921,"BSTAR":2.8713e-5,"MEAN_MOTION_DOT":5.0e-8,"MEAN_MOTION_DDOT":0},{"OBJECT_NAME":"WORLDVIEW-2 (WV-2)","OBJECT_ID":"2009-055A","EPOCH":"2026-04-05T19:05:31.295904","MEAN_MOTION":14.37922763,"ECCENTRICITY":0.0005537,"INCLINATION":98.4651,"RA_OF_ASC_NODE":170.2685,"ARG_OF_PERICENTER":80.7718,"MEAN_ANOMALY":279.4095,"EPHEMERIS_TYPE":0,"CLASSIFICATION_TYPE":"U","NORAD_CAT_ID":35946,"ELEMENT_SET_NO":999,"REV_AT_EPOCH":86524,"BSTAR":8.9457e-5,"MEAN_MOTION_DOT":2.27e-6,"MEAN_MOTION_DDOT":0}]
